C/2021 T4 (Lemmon),e,160.7787,257.8848,329.7398,3035,0.0000059,0.99951206,0.0000,07/31.4251/2023,2000,g  7.5,4.0
# From MPEC 2024-JU4
P/2021 V2 (Fuls),e,12.6900,232.2743,259.9417,9.096913,0.0359222,0.61544122,38.9674,01/11.0/2026,2000,g 10.0,4.0
# From MPEC 2024-TD8
C/2021 X1 (Maury-Attard),h,05/27.3979/2023,140.1105,10.6357,334.6417,1.000811,3.234772,2000,7.0,4.0
# From MPEC 2024-GJ3
C/2021 Y1 (ATLAS),h,05/01.0542/2023,77.1733,244.7647,245.8550,1.001734,2.032343,2000,7.0,4.0
# From MPEC 2024-P23
C/2022 A2 (PANSTARRS),h,02/18.2222/2023,108.1920,171.6226,88.3695,1.000080,1.735116,2000,9.5,4.0
# From MPEC 2024-UQ8
C/2022 A3 (Lemmon-ATLAS),e,88.3583,325.4510,234.8874,952.2795,0.0000335,0.99610937,0.0000,09/29.0718/2023,2000,g  8.0,4.0
# From MPEC 2023-J29
P/2022 BV9 (Lemmon),e,11.9220,337.3042,16.2739,4.366801,0.1080088,0.23328286,206.0764,01/11.0/2026,2000,g  9.5,4.0
# From MPEC 2023-J29
P/2022 C1 (PANSTARRS),e,4.7634,113.0950,9.5117,7.237502,0.0506199,0.44920563,77.3004,01/11.0/2026,2000,g 12.0,4.0
# From MPEC 2023-VM5
P/2022 C2 (PANSTARRS),e,9.9832,135.2560,89.1236,6.032541,0.0665202,0.44224732,83.4042,01/11.0/2026,2000,g 12.5,4.0
# From MPEC 2023-UR6
P/2022 C3 (PANSTARRS),e,12.8250,139.0408,93.7868,9.615543,0.0330555,0.54561468,42.6658,01/11.0/2026,2000,g 11.5,4.0
# From MPEC 2022-K19
P/2022 D1 (PANSTARRS),e,44.0572,47.9354,88.6826,7.407158,0.0488907,0.54814119,78.0222,01/11.0/2026,2000,g 12.5,4.0
# From MPEC 2022-L66
P/2022 E1 (Christensen),e,19.0071,113.3402,114.8413,3.777608,0.1342390,0.22060052,176.1471,01/11.0/2026,2000,g 13.5,4.0
# From MPEC 2026-A24
C/2022 E2 (ATLAS),h,09/14.2298/2024,137.1411,125.3960,41.7686,1.000496,3.667215,2000,5.0,4.0
# From MPC186629
C/2022 E3 (ZTF),h,01/12.3857/2023,109.1800,302.4916,145.8520,1.000015,1.115722,2000,7.5,4.0
# From MPEC 2024-PC5
C/2022 F1 (ATLAS),e,57.9852,350.6365,278.3997,2163071,0.0000000,0.99999724,0.0000,08/06.3602/2022,2000,g  7.0,4.0
# From MPC185656
C/2022 H1 (PANSTARRS),e,49.8628,6.3124,246.2897,854.6951,0.0000394,0.99100426,0.0000,01/18.5010/2024,2000,g  6.0,4.0
# From MPC181181
C/2022 JK5 (PANSTARRS),e,16.8253,59.6522,247.3715,43.59400,0.0034242,0.93815711,3.3843,01/11.0/2026,2000,g 11.0,4.0
# From MPEC 2022-ST7
C/2022 K1 (Leonard),h,12/16.3741/2021,41.9775,136.3722,142.4934,1.000470,3.983219,2000,11.0,4.0
# From MPEC 2026-A24
C/2022 L2 (ATLAS),h,03/12.0407/2024,129.3091,39.2540,199.9290,1.000498,2.694071,2000,6.5,4.0
# From MPEC 2026-A24
C/2022 N2 (PANSTARRS),h,07/31.9266/2025,5.5030,319.7350,75.4232,1.003556,3.825646,2000,6.0,4.0
# From MPEC 2024-A43
C/2022 O1 (ATLAS),h,02/14.9492/2022,71.0631,49.9060,268.9345,1.000655,7.435250,2000,6.0,4.0
# From MPEC 2023-XP6
P/2022 P2 (ZTF),e,12.4415,291.1680,137.8039,4.492861,0.1034950,0.55778895,132.4772,01/11.0/2026,2000,g 12.5,4.0
# From MPEC 2026-A24
C/2022 QE78 (ATLAS),e,36.6543,119.8897,0.6523,4541,0.0000032,0.99879415,0.0000,09/12.2218/2025,2000,g  5.0,4.0
# From MPEC 2024-M41
P/2022 R1 (PANSTARRS),e,7.3859,175.6061,221.6725,7.125904,0.0518136,0.50009903,43.0508,01/11.0/2026,2000,g 11.5,4.0
# From MPC184410
C/2022 R3 (Leonard),h,03/05.9768/2023,43.0637,8.2659,72.9521,1.001509,5.133798,2000,9.0,4.0
# From MPEC 2022-WQ9
P/2022 R5 (PANSTARRS),e,15.2923,115.0397,240.4992,3.070554,0.1831803,0.19454900,242.9385,01/11.0/2026,2000,g 16.0,4.0
# From MPEC 2026-A24
C/2022 R6 (PANSTARRS),h,08/26.7368/2025,57.0250,150.7807,319.9626,1.005101,6.565718,2000,5.0,4.0
# From MPEC 2023-HD1
P/2022 S1 (PANSTARRS),e,34.5633,136.0863,262.8570,6.408459,0.0607538,0.50735141,75.4157,01/11.0/2026,2000,g 13.0,4.0
# From MPC185657
C/2022 S4 (Lemmon),e,101.2055,220.1796,268.5600,1442,0.0000180,0.99808458,0.0000,07/18.7951/2024,2000,g  8.0,4.0
# From MPEC 2024-O39
C/2022 T1 (Lemmon),h,02/17.4932/2024,22.5395,236.9079,324.2939,1.000549,3.443734,2000,9.0,4.0
# From MPEC 2025-UQ3
C/2022 U1 (Leonard),h,03/26.1863/2024,128.1441,72.5310,78.6184,1.000558,4.202091,2000,8.5,4.0
# From MPC188409
C/2022 U3 (Bok),e,33.6613,272.7869,189.1479,16453,0.0000005,0.99970658,0.0000,07/28.6808/2024,2000,g  7.5,4.0
# From MPEC 2023-W26
C/2022 U4 (Bok),e,52.0584,132.9177,88.9715,3043,0.0000059,0.99904831,0.0000,08/03.7049/2023,2000,g 10.5,4.0
# From MPEC 2024-H50
C/2022 V2 (Lemmon),e,98.9063,332.8393,168.9680,36.64780,0.0044425,0.94365018,3.5594,01/11.0/2026,2000,g 12.0,4.0
# From MPEC 2023-CD7
P/2022 W1 (Rankin),e,13.4619,38.8377,17.9577,6.976960,0.0534816,0.51626454,64.8739,01/11.0/2026,2000,g 12.5,4.0
# From MPEC 2024-EF7
C/2022 W2 (ATLAS),e,63.4941,320.4261,123.3400,341.4884,0.0001562,0.99084469,0.0000,03/08.6523/2023,2000,g 11.5,4.0
# From MPEC 2023-M14
C/2022 Y1 (Hogan),e,18.8563,285.8725,174.9255,12.62715,0.0219658,0.76539731,25.0460,01/11.0/2026,2000,g 13.0,4.0
# From MPEC 2025-YF1
C/2023 A3 (Tsuchinshan-ATLAS),h,09/27.7615/2024,139.1084,21.6097,308.5401,1.000155,0.391575,2000,6.5,3.2
# From MPEC 2024-F34
P/2023 B1 (PANSTARRS),e,14.5875,78.5627,81.8558,7.069670,0.0524331,0.13129539,51.4320,01/11.0/2026,2000,g  5.5,4.0
# From MPEC 2023-F81
P/2023 B3 (PANSTARRS),e,9.1558,153.9749,240.4019,4.551750,0.1014931,0.12201910,198.2911,01/11.0/2026,2000,g 10.5,4.0
# From MPEC 2026-A24
C/2023 C2 (ATLAS),e,48.3224,301.0059,357.4313,1895,0.0000120,0.99874995,0.0000,11/16.7258/2024,2000,g  7.0,4.0
# From MPEC 2023-N01
C/2023 F2 (SOHO),h,03/21.3893/2023,72.3751,71.4181,57.5779,1.011035,0.033381,2000,9.0,4.0
# From MPEC 2026-A24
C/2023 F3 (ATLAS),h,02/02.6404/2025,145.9631,109.4675,265.5403,1.002945,5.191036,2000,6.0,4.0
# From MPEC 2025-YF1
C/2023 H1 (PANSTARRS),e,21.7832,292.6468,333.7344,744.7998,0.0000485,0.99402914,0.0000,11/28.5321/2024,2000,g  8.5,4.0
# From MPC186630
C/2023 H3 (PANSTARRS),e,2.4883,55.0837,193.2408,13.61563,0.0196177,0.61584069,13.5938,01/11.0/2026,2000,g 10.0,4.0
# From MPEC 2023-SQ0
A/2023 H4,e,76.5757,230.8271,65.0065,139.0699,0.0006010,0.98472456,0.0000,08/08.4832/2023,2000,g 18.0,2.0
# From MPEC 2026-A24
C/2023 H5 (Lemmon),h,06/30.3753/2025,97.8545,159.4752,60.1144,1.000490,4.312718,2000,7.0,4.0
# From MPEC 2024-UA9
P/2023 JN16 (Lemmon),e,3.7012,11.8216,353.4493,2.697801,0.2224279,0.14744630,83.5198,01/11.0/2026,2000,g 14.0,4.0
# From MPEC 2024-GJ3
C/2023 K1 (ATLAS),e,137.9979,223.6944,337.4007,568.0316,0.0000728,0.99641094,0.0000,09/07.3832/2023,2000,g 13.0,4.0
# From MPEC 2023-N01
P/2023 M1 (PANSTARRS),e,12.2895,216.8603,79.6857,6.837307,0.0551285,0.58653848,41.8355,01/11.0/2026,2000,g 13.5,4.0
# From MPEC 2024-TD8
P/2023 M2 (PANSTARRS),e,19.7185,83.2566,243.6907,5.587121,0.0746315,0.36947165,67.0136,01/11.0/2026,2000,g 12.5,4.0
# From MPEC 2024-TP3
P/2023 M4 (ATLAS),e,7.5919,296.2751,320.4251,5.443701,0.0776002,0.27903449,106.2309,01/11.0/2026,2000,g  7.5,4.0
# From MPEC 2024-MB8
C/2023 P1 (Nishimura),e,132.4810,66.8035,116.2117,56.07848,0.0023470,0.99600574,0.0000,09/17.5545/2023,2000,g 10.0,4.0
# From MPC188410
C/2023 Q1 (PANSTARRS),h,12/01.1083/2024,36.6445,7.1240,84.4232,1.004814,2.576109,2000,10.0,4.0
# From MPEC 2024-N80
C/2023 Q2 (PANSTARRS),e,104.0618,92.6790,171.6670,334.2647,0.0001613,0.99040183,0.0000,06/23.8462/2024,2000,g 11.5,4.0
# From MPEC 2026-A24
C/2023 R1 (PANSTARRS),h,04/13.4072/2026,149.3159,62.5675,144.2642,1.002408,3.570045,2000,6.0,4.0
# From MPEC 2024-L77
C/2023 R2 (PANSTARRS),h,08/12.1989/2024,30.6935,188.8752,337.3311,1.000334,0.904885,2000,10.5,4.0
# From MPC188410
C/2023 RN3 (ATLAS),e,10.3513,207.0634,130.6318,10.16315,0.0304202,0.49005949,33.0576,01/11.0/2026,2000,g  7.5,4.0
# From MPEC 2026-A24
C/2023 RS61 (PANSTARRS),e,19.9463,347.0301,119.4942,11.89670,0.0240195,0.32796972,334.6165,01/11.0/2026,2000,g  6.8,4.0
# From MPC188410
P/2023 S1 (PANSTARRS),e,9.1576,317.2882,180.3376,3.844451,0.1307533,0.31850135,41.9352,01/11.0/2026,2000,g 11.5,4.0
# From MPEC 2024-BE0
P/2023 T1 (PANSTARRS),e,6.6122,249.5780,202.8961,4.226383,0.1134360,0.33314242,67.8425,01/11.0/2026,2000,g 14.0,4.0
# From MPC188410
C/2023 T3 (Fuls),e,27.2194,246.0024,302.8524,938.5409,0.0000343,0.99621930,0.0000,01/25.4048/2025,2000,g  8.5,4.0
# From MPEC 2025-UQ3
C/2023 TD22 (Lemmon),e,170.4888,5.5745,32.5381,48.36304,0.0029304,0.95128245,1.4116,01/11.0/2026,2000,g 12.5,4.0
# From MPEC 2026-A24
C/2023 U1 (Fuls),e,108.1475,305.8004,255.6614,3426,0.0000049,0.99854834,0.0000,10/13.0982/2024,2000,g  8.0,4.0
# From MPC188411
C/2023 V1 (Lemmon),h,07/13.0638/2025,102.0106,15.0499,103.3192,1.000428,5.092605,2000,8.5,4.0
# From MPC184411
P/2023 V2 (PANSTARRS),e,9.8883,95.4731,330.5154,7.216465,0.0508414,0.56978574,35.9690,01/11.0/2026,2000,g 13.5,4.0
# From MPEC 2024-A43
C/2023 V3 (PANSTARRS),e,40.6461,91.2758,291.8069,12.71661,0.0217344,0.64648964,19.4213,01/11.0/2026,2000,g 11.5,4.0
# From MPEC 2025-UQ3
C/2023 V4 (Camarasa-Duszanowicz),h,05/30.4316/2024,67.1141,66.3269,50.8793,1.001263,1.122047,2000,12.0,4.0
# From MPC181182
P/2023 V6 (PANSTARRS),e,3.9780,189.4814,191.7890,5.280775,0.0812190,0.17526145,92.8672,01/11.0/2026,2000,g 11.5,4.0
# From MPEC 2024-GJ3
C/2023 X1 (Leonard),e,110.5923,136.9720,321.4800,155.4287,0.0005086,0.99387500,0.0000,10/17.8697/2023,2000,g 13.5,3.2
# From MPEC 2026-A24
C/2023 X2 (Lemmon),h,12/28.4120/2025,76.9805,66.3010,64.7941,1.000036,5.088550,2000,8.5,3.2
# From MPEC 2024-A43
P/2023 X3 (PANSTARRS),e,4.4831,62.0165,40.9164,4.246851,0.1126169,0.28614921,70.7987,01/11.0/2026,2000,g 15.5,4.0
# From MPC184411
C/2023 X4 (Hogan),e,11.5917,28.7707,100.6221,9.929140,0.0315019,0.63146671,18.7678,01/11.0/2026,2000,g 12.0,4.0
# From MPEC 2024-DA2
C/2023 X7 (PANSTARRS),e,69.1255,119.2045,354.3964,72848,0.0000001,0.99993383,0.0000,05/15.1081/2025,2000,g  9.0,4.0
# From MPC181183
P/2023 Y2 (Gibbs),e,6.9922,79.2304,16.9362,3.748183,0.1358229,0.39218611,120.1786,01/11.0/2026,2000,g 15.5,4.0
# From MPEC 2026-A24
C/2024 A1 (ATLAS),h,06/13.1064/2025,94.5058,112.1405,353.2125,1.000575,3.874381,2000,7.0,4.0
# From MPC182881
C/2024 A2 (ATLAS),e,119.1153,78.1666,295.4925,32.15647,0.0054051,0.94154310,3.3636,01/11.0/2026,2000,g 12.5,4.0
# From MPC188411
